[{"OBJECT_NAME":"ICESAT-2","OBJECT_ID":"2018-070A","EPOCH":"2026-03-09T22:54:12.225888","MEAN_MOTION":15.28328617,"ECCENTRICITY":0.00038245,"INCLINATION":91.9993,"RA_OF_ASC_NODE":264.2397,"ARG_OF_PERICENTER":123.8941,"MEAN_ANOMALY":236.2673,"EPHEMERIS_TYPE":0,"CLASSIFICATION_TYPE":"U","NORAD_CAT_ID":43613,"ELEMENT_SET_NO":999,"REV_AT_EPOCH":41730,"BSTAR":0.00014022643,"MEAN_MOTION_DOT":3.87e-5,"MEAN_MOTION_DDOT":0},{"OBJECT_NAME":"STARLINK-31578","OBJECT_ID":"2024-057B","EPOCH":"2026-03-08T15:21:37.066176","MEAN_MOTION":15.27576516,"ECCENTRICITY":9.437e-5,"INCLINATION":42.9986,"RA_OF_ASC_NODE":192.5598,"ARG_OF_PERICENTER":263.492,"MEAN_ANOMALY":96.5824,"EPHEMERIS_TYPE":0,"CLASSIFICATION_TYPE":"U","NORAD_CAT_ID":59321,"ELEMENT_SET_NO":999,"REV_AT_EPOCH":10968,"BSTAR":2.3922819e-5,"MEAN_MOTION_DOT":3.96e-6,"MEAN_MOTION_DDOT":0}]
